#dV2023  1 12 10  0  0.00000000    1682       CTS   FIT  GFZ
## 2244 381600.00000000    30.00000000 59956 0.4166666666667
+    1   L65  0  0  0  0  0  0  0  0  0  0  0  0  0  0  0  0
+          0  0  0  0  0  0  0  0  0  0  0  0  0  0  0  0  0
+          0  0  0  0  0  0  0  0  0  0  0  0  0  0  0  0  0
+          0  0  0  0  0  0  0  0  0  0  0  0  0  0  0  0  0
+          0  0  0  0  0  0  0  0  0  0  0  0  0  0  0  0  0
++         0  0  0  0  0  0  0  0  0  0  0  0  0  0  0  0  0
++         0  0  0  0  0  0  0  0  0  0  0  0  0  0  0  0  0
++         0  0  0  0  0  0  0  0  0  0  0  0  0  0  0  0  0
++         0  0  0  0  0  0  0  0  0  0  0  0  0  0  0  0  0
++         0  0  0  0  0  0  0  0  0  0  0  0  0  0  0  0  0
%c L  cc GPS ccc cccc cccc cccc cccc ccccc ccccc ccccc ccccc
%c cc cc ccc ccc cccc cccc cccc cccc ccccc ccccc ccccc ccccc
%f  0.0000000  0.000000000  0.00000000000  0.000000000000000
%f  0.0000000  0.000000000  0.00000000000  0.000000000000000
%i    0    0    0    0      0      0      0      0         0
%i    0    0    0    0      0      0      0      0         0
/* CCCCCCCCCCCCCCCCCCCCCCCCCCCCCCCCCCCCCCCCCCCCCCCCCCCCCCCCCCCCCCCCCCCCCCCCCCCCC
/* C                             GFZ RSO-ORBIT                                 C
/* C DOI: https://doi.org/10.5880/GFZ_ORBIT/RSO/L65_G_v02                      C
/* C                                                                           C
/* C DORIS        RMS: not applicable                                          C
/* C GNSS-E Code  RMS: not applicable                                          C
/* C GNSS-E Phase RMS: not applicable                                          C
/* C GNSS-G Code  RMS:  50.439 [cm]   Obs.acc.:     14862 Obs.eli.:       970  C
/* C GNSS-G Phase RMS:   4.309 [mm]   Obs.acc.:     14862 Obs.eli.:       970  C
/* C SLR          RMS:   1.663 [cm]   Obs.acc.:        35 Obs.eli.:         0  C
/* C                                                                           C
/* CCCCCCCCCCCCCCCCCCCCCCCCCCCCCCCCCCCCCCCCCCCCCCCCCCCCCCCCCCCCCCCCCCCCCCCCCCCCC
*  2023  1 12 15 57  0.00000000
PL65  -4887.792015  -1778.782502  -4490.475379   1370.444100
VL65  46082.404293  18922.127800 -57589.897807 999999.999999
*  2023  1 12 15 57 30.00000000
PL65  -4746.759393  -1721.355622  -4660.728170   1370.910907
VL65  47930.997436  19357.585017 -55901.542284 999999.999999
*  2023  1 12 15 58  0.00000000
PL65  -4600.257167  -1662.666355  -4825.823070   1371.377302
VL65  49728.455540  19763.680356 -54151.626021 999999.999999
*  2023  1 12 15 58 30.00000000
PL65  -4448.441882  -1602.803113  -4985.578323   1371.843246
VL65  51472.693581  20140.203442 -52342.108742 999999.999999
*  2023  1 12 15 59  0.00000000
PL65  -4291.476252  -1541.854876  -5139.818142   1372.309671
VL65  53161.686766  20486.986452 -50475.013228 999999.999999
*  2023  1 12 15 59 30.00000000
PL65  -4129.528971  -1479.911062  -5288.372905   1372.776209
VL65  54793.472700  20803.903462 -48552.422794 999999.999999
*  2023  1 12 16  0  0.00000000
PL65  -3962.774524  -1417.061407  -5431.079324   1373.242992
VL65  56366.153265  21090.870012 -46576.478907 999999.999999
*  2023  1 12 16  0 30.00000000
PL65  -3791.392991  -1353.395837  -5567.780621   1373.709954
VL65  57877.896311  21347.843084 -44549.378902 999999.999999
*  2023  1 12 16  1  0.00000000
PL65  -3615.569850  -1289.004345  -5698.326690   1374.176724
VL65  59326.937556  21574.821072 -42473.373631 999999.999999
*  2023  1 12 16  1 30.00000000
PL65  -3435.495765  -1223.976867  -5822.574257   1374.643588
VL65  60711.582587  21771.843469 -40350.764886 999999.999999
*  2023  1 12 16  2  0.00000000
PL65  -3251.366376  -1158.403161  -5940.387025   1375.110568
VL65  62030.208707  21938.990296 -38183.902640 999999.999999
*  2023  1 12 16  2 30.00000000
PL65  -3063.382083  -1092.372683  -6051.635814   1375.577589
VL65  63281.266389  22076.381287 -35975.182352 999999.999999
*  2023  1 12 16  3  0.00000000
PL65  -2871.747823  -1025.974472  -6156.198698   1376.044729
VL65  64463.280853  22184.174938 -33727.042957 999999.999999
*  2023  1 12 16  3 30.00000000
PL65  -2676.672841   -959.297035  -6253.961131   1376.511875
VL65  65574.854607  22262.568017 -31441.964497 999999.999999
*  2023  1 12 16  4  0.00000000
PL65  -2478.370457   -892.428231  -6344.816062   1376.978999
VL65  66614.669506  22311.795327 -29122.464364 999999.999999
*  2023  1 12 16  4 30.00000000
PL65  -2277.057824   -825.455158  -6428.664046   1377.446099
VL65  67581.487506  22332.129224 -26771.093683 999999.999999
*  2023  1 12 16  5  0.00000000
PL65  -2072.955689   -758.464041  -6505.413335   1377.913214
VL65  68474.151259  22323.878914 -24390.434265 999999.999999
*  2023  1 12 16  5 30.00000000
PL65  -1866.288150   -691.540124  -6574.979971   1378.380385
VL65  69291.584679  22287.389399 -21983.095547 999999.999999
*  2023  1 12 16  6  0.00000000
PL65  -1657.282409   -624.767565  -6637.287862   1378.847282
VL65  70032.792959  22223.040111 -19551.711720 999999.999999
*  2023  1 12 16  6 30.00000000
PL65  -1446.168534   -558.229332  -6692.268853   1379.314106
VL65  70696.862078  22131.243644 -17098.940401 999999.999999
*  2023  1 12 16  7  0.00000000
PL65  -1233.179210   -492.007106  -6739.862798   1379.781083
VL65  71282.960276  22012.445428 -14627.462675 999999.999999
*  2023  1 12 16  7 30.00000000
PL65  -1018.549492   -426.181184  -6780.017624   1380.248115
VL65  71790.341660  21867.123836 -12139.980679 999999.999999
*  2023  1 12 16  8  0.00000000
PL65   -802.516538   -360.830377  -6812.689395   1380.714973
VL65  72218.347976  21695.789154  -9639.212341 999999.999999
*  2023  1 12 16  8 30.00000000
PL65   -585.319354   -296.031923  -6837.842341   1381.181969
VL65  72566.407445  21498.981781  -7127.887173 999999.999999
*  2023  1 12 16  9  0.00000000
PL65   -367.198530   -231.861392  -6855.448901   1381.649095
VL65  72834.033250  21277.270450  -4608.745403 999999.999999
*  2023  1 12 16  9 30.00000000
PL65   -148.395990   -168.392608  -6865.489749   1382.116247
VL65  73020.825670  21031.251944  -2084.538758 999999.999999
*  2023  1 12 16 10  0.00000000
PL65     70.845279   -105.697562  -6867.953827   1382.583311
VL65  73126.476619  20761.551993    441.973894 999999.999999
*  2023  1 12 16 10 30.00000000
PL65    290.281508    -43.846325  -6862.838357   1383.050270
VL65  73150.769028  20468.823489   2968.034800 999999.999999
*  2023  1 12 16 11  0.00000000
PL65    509.668402     17.093026  -6850.148825   1383.516906
VL65  73093.572559  20153.742784   5490.889277 999999.999999
*  2023  1 12 16 11 30.00000000
PL65    728.761409     77.054477  -6829.898982   1383.983707
VL65  72954.844769  19817.009041   8007.783467 999999.999999
*  2023  1 12 16 12  0.00000000
PL65    947.315985    135.974149  -6802.110834   1384.450590
VL65  72734.634533  19459.344730  10515.968180 999999.999999
*  2023  1 12 16 12 30.00000000
PL65   1165.087869    193.790359  -6766.814622   1384.917372
VL65  72433.080686  19081.493837  13012.703795 999999.999999
*  2023  1 12 16 13  0.00000000
PL65   1381.833351    250.443689  -6724.048790   1385.384131
VL65  72050.411339  18684.220694  15495.261669 999999.999999
*  2023  1 12 16 13 30.00000000
PL65   1597.309536    305.877044  -6673.859945   1385.850906
VL65  71586.943742  18268.309495  17960.927212 999999.999999
*  2023  1 12 16 14  0.00000000
PL65   1811.274617    360.035710  -6616.302818   1386.317666
VL65  71043.082877  17834.563018  20407.001239 999999.999999
*  2023  1 12 16 14 30.00000000
PL65   2023.488132    412.867407  -6551.440214   1386.784471
VL65  70419.323876  17383.801685  22830.799814 999999.999999
*  2023  1 12 16 15  0.00000000
PL65   2233.711248    464.322342  -6479.342959   1387.251419
VL65  69716.256288  16916.863130  25229.659684 999999.999999
*  2023  1 12 16 15 30.00000000
PL65   2441.707040    514.353261  -6400.089829   1387.718443
VL65  68934.561748  16434.600436  27600.946931 999999.999999
*  2023  1 12 16 16  0.00000000
PL65   2647.240757    562.915486  -6313.767453   1388.185555
VL65  68075.008080  15937.879440  29942.059504 999999.999999
*  2023  1 12 16 16 30.00000000
PL65   2850.080079    609.966956  -6220.470220   1388.652687
VL65  67138.447668  15427.577388  32250.425778 999999.999999
*  2023  1 12 16 17  0.00000000
PL65   3049.995371    655.468257  -6120.300187   1389.119757
VL65  66125.818675  14904.582181  34523.505096 999999.999999
*  2023  1 12 16 17 30.00000000
PL65   3246.759945    699.382653  -6013.366984   1389.586399
VL65  65038.146688  14369.791187  36758.790369 999999.999999
*  2023  1 12 16 18  0.00000000
PL65   3440.150319    741.676114  -5899.787709   1390.053230
VL65  63876.545137  13824.109977  38953.812516 999999.999999
*  2023  1 12 16 18 30.00000000
PL65   3629.946483    782.317335  -5779.686800   1390.520312
VL65  62642.213152  13268.451169  41106.145321 999999.999999
*  2023  1 12 16 19  0.00000000
PL65   3815.932146    821.277761  -5653.195909   1390.987267
VL65  61336.431798  12703.733088  43213.407550 999999.999999
*  2023  1 12 16 19 30.00000000
PL65   3997.894984    858.531597  -5520.453764   1391.454417
VL65  59960.563252  12130.878591  45273.262240 999999.999999
*  2023  1 12 16 20  0.00000000
PL65   4175.626881    894.055823  -5381.606036   1391.921504
VL65  58516.053426  11550.814069  47283.418327 999999.999999
*  2023  1 12 16 20 30.00000000
PL65   4348.924191    927.830200  -5236.805194   1392.388776
VL65  57004.432670  10964.468033  49241.636703 999999.999999
*  2023  1 12 16 21  0.00000000
PL65   4517.587975    959.837278  -5086.210337   1392.855920
VL65  55427.311504  10372.769507  51145.735503 999999.999999
*  2023  1 12 16 21 30.00000000
PL65   4681.424243    990.062393  -4929.987026   1393.323176
VL65  53786.376433   9776.646658  52993.591068 999999.999999
*  2023  1 12 16 22  0.00000000
PL65   4840.244178   1018.493660  -4768.307101   1393.790234
VL65  52083.389011   9177.025480  54783.138397 999999.999999
EOF
